[
  {
    "COMMENT": "GENERATED VIA SPACETRACK.ORG API",
    "ORIGINATOR": "18 SPCS",
    "NORAD_CAT_ID": "33105",
    "OBJECT_NAME": "JASON 2",
    "OBJECT_TYPE": "PAYLOAD",
    "CLASSIFICATION_TYPE": "U",
    "INTLDES": "08032A",
    "EPOCH": "2023-04-05 03:48:56",
    "EPOCH_MICROSECONDS": "92320",
    "MEAN_MOTION": "12.8765793",
    "ECCENTRICITY": "0.0008098",
    "INCLINATION": "66.0432",
    "RA_OF_ASC_NODE": "348.9981",
    "ARG_OF_PERICENTER": "273.2312",
    "MEAN_ANOMALY": "252.723",
    "EPHEMERIS_TYPE": "0",
    "ELEMENT_SET_NO": "999",
    "REV_AT_EPOCH": "69318",
    "BSTAR": "0.00018183",
    "MEAN_MOTION_DOT": "-0.00000016",
    "MEAN_MOTION_DDOT": "0",
    "FILE": "3880853",
    "TLE_LINE0": "0 JASON 2",
    "TLE_LINE1": "1 33105U 08032A   23095.15898255 -.00000016  00000-0  18183-3 0  9999",
    "TLE_LINE2": "2 33105  66.0432 348.9981 0008098 273.2312 252.7230 12.87657930693188",
    "OBJECT_ID": "2008-032A",
    "OBJECT_NUMBER": "33105",
    "SEMIMAJOR_AXIS": "7688.970",
    "PERIOD": "111.831",
    "APOGEE": "1317.062",
    "PERIGEE": "1304.609",
    "DECAYED": "0"
  },
  {
    "COMMENT": "GENERATED VIA SPACETRACK.ORG API",
    "ORIGINATOR": "18 SPCS",
    "NORAD_CAT_ID": "33105",
    "OBJECT_NAME": "JASON 2",
    "OBJECT_TYPE": "PAYLOAD",
    "CLASSIFICATION_TYPE": "U",
    "INTLDES": "08032A",
    "EPOCH": "2023-04-05 22:00:41",
    "EPOCH_MICROSECONDS": "211360",
    "MEAN_MOTION": "12.87658029",
    "ECCENTRICITY": "0.0008119",
    "INCLINATION": "66.0432",
    "RA_OF_ASC_NODE": "347.4041",
    "ARG_OF_PERICENTER": "273.2426",
    "MEAN_ANOMALY": "166.8721",
    "EPHEMERIS_TYPE": "0",
    "ELEMENT_SET_NO": "999",
    "REV_AT_EPOCH": "69328",
    "BSTAR": "0.000213",
    "MEAN_MOTION_DOT": "-0.00000008",
    "MEAN_MOTION_DDOT": "0",
    "FILE": "3881153",
    "TLE_LINE0": "0 JASON 2",
    "TLE_LINE1": "1 33105U 08032A   23095.91714365 -.00000008  00000-0  21300-3 0  9998",
    "TLE_LINE2": "2 33105  66.0432 347.4041 0008119 273.2426 166.8721 12.87658029693280",
    "OBJECT_ID": "2008-032A",
    "OBJECT_NUMBER": "33105",
    "SEMIMAJOR_AXIS": "7688.970",
    "PERIOD": "111.831",
    "APOGEE": "1317.077",
    "PERIGEE": "1304.592",
    "DECAYED": "0"
  },
  {
    "COMMENT": "GENERATED VIA SPACETRACK.ORG API",
    "ORIGINATOR": "18 SPCS",
    "NORAD_CAT_ID": "33105",
    "OBJECT_NAME": "JASON 2",
    "OBJECT_TYPE": "PAYLOAD",
    "CLASSIFICATION_TYPE": "U",
    "INTLDES": "08032A",
    "EPOCH": "2023-04-06 02:05:41",
    "EPOCH_MICROSECONDS": "126784",
    "MEAN_MOTION": "12.87657991",
    "ECCENTRICITY": "0.0008124",
    "INCLINATION": "66.043",
    "RA_OF_ASC_NODE": "347.0464",
    "ARG_OF_PERICENTER": "273.2466",
    "MEAN_ANOMALY": "235.4757",
    "EPHEMERIS_TYPE": "0",
    "ELEMENT_SET_NO": "999",
    "REV_AT_EPOCH": "69339",
    "BSTAR": "0.0002049",
    "MEAN_MOTION_DOT": "-0.0000001",
    "MEAN_MOTION_DDOT": "0",
    "FILE": "3881228",
    "TLE_LINE0": "0 JASON 2",
    "TLE_LINE1": "1 33105U 08032A   23096.08728156 -.00000010  00000-0  20490-3 0  9992",
    "TLE_LINE2": "2 33105  66.0430 347.0464 0008124 273.2466 235.4757 12.87657991693394",
    "OBJECT_ID": "2008-032A",
    "OBJECT_NUMBER": "33105",
    "SEMIMAJOR_AXIS": "7688.970",
    "PERIOD": "111.831",
    "APOGEE": "1317.081",
    "PERIGEE": "1304.588",
    "DECAYED": "0"
  },
  {
    "COMMENT": "GENERATED VIA SPACETRACK.ORG API",
    "ORIGINATOR": "18 SPCS",
    "NORAD_CAT_ID": "33105",
    "OBJECT_NAME": "JASON 2",
    "OBJECT_TYPE": "PAYLOAD",
    "CLASSIFICATION_TYPE": "U",
    "INTLDES": "08032A",
    "EPOCH": "2023-04-06 02:05:41",
    "EPOCH_MICROSECONDS": "126784",
    "MEAN_MOTION": "12.87657991",
    "ECCENTRICITY": "0.0008124",
    "INCLINATION": "66.043",
    "RA_OF_ASC_NODE": "347.0464",
    "ARG_OF_PERICENTER": "273.2466",
    "MEAN_ANOMALY": "235.4757",
    "EPHEMERIS_TYPE": "0",
    "ELEMENT_SET_NO": "999",
    "REV_AT_EPOCH": "69330",
    "BSTAR": "0.0002049",
    "MEAN_MOTION_DOT": "-0.0000001",
    "MEAN_MOTION_DDOT": "0",
    "FILE": "3881771",
    "TLE_LINE0": "0 JASON 2",
    "TLE_LINE1": "1 33105U 08032A   23096.08728156 -.00000010  00000-0  20490-3 0  9992",
    "TLE_LINE2": "2 33105  66.0430 347.0464 0008124 273.2466 235.4757 12.87657991693305",
    "OBJECT_ID": "2008-032A",
    "OBJECT_NUMBER": "33105",
    "SEMIMAJOR_AXIS": "7688.970",
    "PERIOD": "111.831",
    "APOGEE": "1317.081",
    "PERIGEE": "1304.588",
    "DECAYED": "0"
  },
  {
    "COMMENT": "GENERATED VIA SPACETRACK.ORG API",
    "ORIGINATOR": "18 SPCS",
    "NORAD_CAT_ID": "33105",
    "OBJECT_NAME": "JASON 2",
    "OBJECT_TYPE": "PAYLOAD",
    "CLASSIFICATION_TYPE": "U",
    "INTLDES": "08032A",
    "EPOCH": "2023-04-07 04:17:35",
    "EPOCH_MICROSECONDS": "538720",
    "MEAN_MOTION": "12.87658015",
    "ECCENTRICITY": "0.0008121",
    "INCLINATION": "66.043",
    "RA_OF_ASC_NODE": "344.7513",
    "ARG_OF_PERICENTER": "273.2544",
    "MEAN_ANOMALY": "255.1638",
    "EPHEMERIS_TYPE": "0",
    "ELEMENT_SET_NO": "999",
    "REV_AT_EPOCH": "69344",
    "BSTAR": "0.00018034",
    "MEAN_MOTION_DOT": "-0.00000017",
    "MEAN_MOTION_DDOT": "0",
    "FILE": "3882626",
    "TLE_LINE0": "0 JASON 2",
    "TLE_LINE1": "1 33105U 08032A   23097.17888355 -.00000017  00000-0  18034-3 0  9999",
    "TLE_LINE2": "2 33105  66.0430 344.7513 0008121 273.2544 255.1638 12.87658015693448",
    "OBJECT_ID": "2008-032A",
    "OBJECT_NUMBER": "33105",
    "SEMIMAJOR_AXIS": "7688.970",
    "PERIOD": "111.831",
    "APOGEE": "1317.079",
    "PERIGEE": "1304.591",
    "DECAYED": "0"
  },
  {
    "COMMENT": "GENERATED VIA SPACETRACK.ORG API",
    "ORIGINATOR": "18 SPCS",
    "NORAD_CAT_ID": "33105",
    "OBJECT_NAME": "JASON 2",
    "OBJECT_TYPE": "PAYLOAD",
    "CLASSIFICATION_TYPE": "U",
    "INTLDES": "08032A",
    "EPOCH": "2023-04-08 04:34:26",
    "EPOCH_MICROSECONDS": "813568",
    "MEAN_MOTION": "12.87658104",
    "ECCENTRICITY": "0.0008121",
    "INCLINATION": "66.0428",
    "RA_OF_ASC_NODE": "342.6242",
    "ARG_OF_PERICENTER": "273.1975",
    "MEAN_ANOMALY": "264.5843",
    "EPHEMERIS_TYPE": "0",
    "ELEMENT_SET_NO": "999",
    "REV_AT_EPOCH": "69366",
    "BSTAR": "0.00015125",
    "MEAN_MOTION_DOT": "-0.00000024",
    "MEAN_MOTION_DDOT": "0",
    "FILE": "3882937",
    "TLE_LINE0": "0 JASON 2",
    "TLE_LINE1": "1 33105U 08032A   23098.19058812 -.00000024  00000-0  15125-3 0  9995",
    "TLE_LINE2": "2 33105  66.0428 342.6242 0008121 273.1975 264.5843 12.87658104693663",
    "OBJECT_ID": "2008-032A",
    "OBJECT_NUMBER": "33105",
    "SEMIMAJOR_AXIS": "7688.969",
    "PERIOD": "111.831",
    "APOGEE": "1317.079",
    "PERIGEE": "1304.590",
    "DECAYED": "0"
  },
  {
    "COMMENT": "GENERATED VIA SPACETRACK.ORG API",
    "ORIGINATOR": "18 SPCS",
    "NORAD_CAT_ID": "33105",
    "OBJECT_NAME": "JASON 2",
    "OBJECT_TYPE": "PAYLOAD",
    "CLASSIFICATION_TYPE": "U",
    "INTLDES": "08032A",
    "EPOCH": "2023-04-08 04:34:26",
    "EPOCH_MICROSECONDS": "813568",
    "MEAN_MOTION": "12.87658104",
    "ECCENTRICITY": "0.0008121",
    "INCLINATION": "66.0428",
    "RA_OF_ASC_NODE": "342.6242",
    "ARG_OF_PERICENTER": "273.1975",
    "MEAN_ANOMALY": "264.5843",
    "EPHEMERIS_TYPE": "0",
    "ELEMENT_SET_NO": "999",
    "REV_AT_EPOCH": "69357",
    "BSTAR": "0.00015125",
    "MEAN_MOTION_DOT": "-0.00000024",
    "MEAN_MOTION_DDOT": "0",
    "FILE": "3883527",
    "TLE_LINE0": "0 JASON 2",
    "TLE_LINE1": "1 33105U 08032A   23098.19058812 -.00000024  00000-0  15125-3 0  9995",
    "TLE_LINE2": "2 33105  66.0428 342.6242 0008121 273.1975 264.5843 12.87658104693573",
    "OBJECT_ID": "2008-032A",
    "OBJECT_NUMBER": "33105",
    "SEMIMAJOR_AXIS": "7688.969",
    "PERIOD": "111.831",
    "APOGEE": "1317.079",
    "PERIGEE": "1304.590",
    "DECAYED": "0"
  },
  {
    "COMMENT": "GENERATED VIA SPACETRACK.ORG API",
    "ORIGINATOR": "18 SPCS",
    "NORAD_CAT_ID": "33105",
    "OBJECT_NAME": "JASON 2",
    "OBJECT_TYPE": "PAYLOAD",
    "CLASSIFICATION_TYPE": "U",
    "INTLDES": "08032A",
    "EPOCH": "2023-04-09 02:48:46",
    "EPOCH_MICROSECONDS": "791072",
    "MEAN_MOTION": "12.87658194",
    "ECCENTRICITY": "0.0008115",
    "INCLINATION": "66.0426",
    "RA_OF_ASC_NODE": "340.676",
    "ARG_OF_PERICENTER": "273.1533",
    "MEAN_ANOMALY": "239.6163",
    "EPHEMERIS_TYPE": "0",
    "ELEMENT_SET_NO": "999",
    "REV_AT_EPOCH": "69369",
    "BSTAR": "0.00014726",
    "MEAN_MOTION_DOT": "-0.00000025",
    "MEAN_MOTION_DDOT": "0",
    "FILE": "3884332",
    "TLE_LINE0": "0 JASON 2",
    "TLE_LINE1": "1 33105U 08032A   23099.11720823 -.00000025  00000-0  14726-3 0  9993",
    "TLE_LINE2": "2 33105  66.0426 340.6760 0008115 273.1533 239.6163 12.87658194693697",
    "OBJECT_ID": "2008-032A",
    "OBJECT_NUMBER": "33105",
    "SEMIMAJOR_AXIS": "7688.969",
    "PERIOD": "111.831",
    "APOGEE": "1317.074",
    "PERIGEE": "1304.594",
    "DECAYED": "0"
  },
  {
    "COMMENT": "GENERATED VIA SPACETRACK.ORG API",
    "ORIGINATOR": "18 SPCS",
    "NORAD_CAT_ID": "33105",
    "OBJECT_NAME": "JASON 2",
    "OBJECT_TYPE": "PAYLOAD",
    "CLASSIFICATION_TYPE": "U",
    "INTLDES": "08032A",
    "EPOCH": "2023-04-09 22:34:50",
    "EPOCH_MICROSECONDS": "264256",
    "MEAN_MOTION": "12.87658269",
    "ECCENTRICITY": "0.0008104",
    "INCLINATION": "66.0425",
    "RA_OF_ASC_NODE": "338.9443",
    "ARG_OF_PERICENTER": "273.0971",
    "MEAN_ANOMALY": "97.3885",
    "EPHEMERIS_TYPE": "0",
    "ELEMENT_SET_NO": "999",
    "REV_AT_EPOCH": "69380",
    "BSTAR": "0.00015083",
    "MEAN_MOTION_DOT": "-0.00000024",
    "MEAN_MOTION_DDOT": "0",
    "FILE": "3884641",
    "TLE_LINE0": "0 JASON 2",
    "TLE_LINE1": "1 33105U 08032A   23099.94085954 -.00000024  00000-0  15083-3 0  9999",
    "TLE_LINE2": "2 33105  66.0425 338.9443 0008104 273.0971  97.3885 12.87658269693803",
    "OBJECT_ID": "2008-032A",
    "OBJECT_NUMBER": "33105",
    "SEMIMAJOR_AXIS": "7688.969",
    "PERIOD": "111.831",
    "APOGEE": "1317.065",
    "PERIGEE": "1304.603",
    "DECAYED": "0"
  }
]